NORAD_CAT_ID,OBJECT_NAME,OBJECT_TYPE,EPOCH,MEAN_MOTION,ECCENTRICITY,INCLINATION,RA_OF_ASC_NODE,ARG_OF_PERICENTER,MEAN_ANOMALY,BSTAR,MEAN_MOTION_DOT,MEAN_MOTION_DDOT,TLE_LINE0,TLE_LINE1,TLE_LINE2,SEMIMAJOR_AXIS,PERIOD,APOGEE,PERIGEE,DECAYED
53828.0,STARLINK-4760,PAYLOAD,2023-10-15 06:33:45,15.08827059,0.0001508,53.2169,278.4132,94.9001,265.2163,-0.0001025,-1.918e-05,0.0,0 STARLINK-4760,1 53828U 22114L   23288.27343755 -.00001918  00000-0 -10250-3 0  9997,2 53828  53.2169 278.4132 0001508  94.9001 265.2163 15.08827059 60521,6917.92,95.438,540.828,538.742,0.0
53828.0,STARLINK-4760,PAYLOAD,2023-10-16 07:59:54,15.08858533,0.0001431,53.2168,273.654,95.2944,264.8212,0.00070299,0.00010923,0.0,0 STARLINK-4760,1 53828U 22114L   23289.33326900  .00010923  00000-0  70299-3 0  9991,2 53828  53.2168 273.6540 0001431  95.2944 264.8212 15.08858533 60144,6917.824,95.436,540.679,538.699,0.0
53828.0,STARLINK-4760,PAYLOAD,2023-10-16 09:35:17,15.08865258,0.0001433,53.2167,273.3565,95.0027,265.1129,0.0010909,0.00017128,0.0,0 STARLINK-4760,1 53828U 22114L   23289.39950926  .00017128  00000-0  10909-2 0  9993,2 53828  53.2167 273.3565 0001433  95.0027 265.1129 15.08865258 60692,6917.803,95.436,540.66,538.677,0.0
53828.0,STARLINK-4760,PAYLOAD,2023-10-16 22:18:22,15.08858857,0.0001916,53.2156,270.9761,96.9034,263.2176,0.00057504,8.88e-05,0.0,0 STARLINK-4760,1 53828U 22114L   23289.92942933  .00008880  00000-0  57504-3 0  9999,2 53828  53.2156 270.9761 0001916  96.9034 263.2176 15.08858857 60772,6917.823,95.436,541.013,538.362,0.0
53828.0,STARLINK-4760,PAYLOAD,2023-10-17 06:15:18,15.08850867,0.0001365,53.2159,269.4856,125.7268,234.3851,0.00061898,9.58e-05,0.0,0 STARLINK-4760,1 53828U 22114L   23290.26062777  .00009580  00000-0  61898-3 0  9996,2 53828  53.2159 269.4856 0001365 125.7268 234.3851 15.08850867 60289,6917.847,95.437,540.656,538.768,0.0
53828.0,STARLINK-4760,PAYLOAD,2023-10-18 02:55:19,15.08841266,0.0001424,53.217,265.6247,89.243,270.8725,0.00032605,4.905e-05,0.0,0 STARLINK-4760,1 53828U 22114L   23291.12175301  .00004905  00000-0  32605-3 0  9990,2 53828  53.2170 265.6247 0001424  89.2430 270.8725 15.08841266 60957,6917.877,95.437,540.727,538.756,0.0
53828.0,STARLINK-4760,PAYLOAD,2023-10-18 04:30:42,15.08843609,0.0001399,53.216,265.327,93.9437,266.1715,0.00030475,4.566e-05,0.0,0 STARLINK-4760,1 53828U 22114L   23291.18799179  .00004566  00000-0  30475-3 0  9997,2 53828  53.2160 265.3270 0001399  93.9437 266.1715 15.08843609 60421,6917.869,95.437,540.702,538.767,0.0
53828.0,STARLINK-4760,PAYLOAD,2023-10-18 15:38:24,15.08844232,0.0001371,53.2163,263.2454,84.946,275.1688,0.00031706,4.762e-05,0.0,0 STARLINK-4760,1 53828U 22114L   23291.65167290  .00004762  00000-0  31706-3 0  9998,2 53828  53.2163 263.2454 0001371  84.9460 275.1688 15.08844232 61031,6917.867,95.437,540.681,538.784,0.0
53828.0,STARLINK-4760,PAYLOAD,2023-10-19 04:21:29,15.08846652,0.0001683,53.2162,260.8682,81.5326,278.5857,0.0004138,6.305e-05,0.0,0 STARLINK-4760,1 53828U 22114L   23292.18159437  .00006305  00000-0  41380-3 0  9995,2 53828  53.2162 260.8682 0001683  81.5326 278.5857 15.08846652 60577,6917.86,95.437,540.889,538.561,0.0
53828.0,STARLINK-4760,PAYLOAD,2023-10-19 21:50:44,15.08847762,0.0002105,53.2177,257.5992,76.427,283.6957,0.00035463,5.361e-05,0.0,0 STARLINK-4760,1 53828U 22114L   23292.91023495  .00005361  00000-0  35463-3 0  9996,2 53828  53.2177 257.5992 0002105  76.4270 283.6957 15.08847762 61225,6917.857,95.437,541.178,538.265,0.0
53828.0,STARLINK-4760,PAYLOAD,2023-10-20 04:12:16,15.08850056,0.0001642,53.2167,256.4056,102.1355,257.9821,0.00021969,3.211e-05,0.0,0 STARLINK-4760,1 53828U 22114L   23293.17518982  .00003211  00000-0  21969-3 0  9993,2 53828  53.2167 256.4056 0001642 102.1355 257.9821 15.08850056 60727,6917.85,95.437,540.851,538.579,0.0
53828.0,STARLINK-4760,PAYLOAD,2023-10-20 07:23:02,15.08853157,0.0001744,53.2169,255.81,103.8324,256.2863,0.00028766,4.295e-05,0.0,0 STARLINK-4760,1 53828U 22114L   23293.30766823  .00004295  00000-0  28766-3 0  9992,2 53828  53.2169 255.8100 0001744 103.8324 256.2863 15.08853157 61284,6917.84,95.437,540.912,538.499,0.0
53828.0,STARLINK-4760,PAYLOAD,2023-10-20 21:41:31,15.08828812,0.0001585,53.2188,253.1382,84.4694,275.6479,-0.0001257,-2.287e-05,0.0,0 STARLINK-4760,1 53828U 22114L   23293.90384154 -.00002287  00000-0 -12570-3 0  9998,2 53828  53.2188 253.1382 0001585  84.4694 275.6479 15.08828812 61373,6917.915,95.438,540.876,538.683,0.0
53828.0,STARLINK-4760,PAYLOAD,2023-10-21 02:27:41,15.08830527,0.0001659,53.2183,252.2466,91.5111,268.6071,-7.4251e-05,-1.469e-05,0.0,0 STARLINK-4760,1 53828U 22114L   23294.10256193 -.00001469  00000-0 -74251-4 0  9998,2 53828  53.2183 252.2466 0001659  91.5111 268.6071 15.08830527 60865,6917.909,95.438,540.922,538.627,0.0
53828.0,STARLINK-4760,PAYLOAD,2023-10-21 04:03:04,15.08832984,0.0001642,53.2167,251.9452,108.8957,251.2214,2.3095e-05,7.9e-07,0.0,0 STARLINK-4760,1 53828U 22114L   23294.16880035  .00000079  00000-0  23095-4 0  9996,2 53828  53.2167 251.9452 0001642 108.8957 251.2214 15.08832984 61418,6917.902,95.438,540.903,538.631,0.0
53828.0,STARLINK-4760,PAYLOAD,2023-10-21 21:32:18,15.08849106,0.0001353,53.2165,248.6734,101.9139,258.2005,0.00033713,5.083e-05,0.0,0 STARLINK-4760,1 53828U 22114L   23294.89743500  .00005083  00000-0  33713-3 0  9998,2 53828  53.2165 248.6734 0001353 101.9139 258.2005 15.08849106 61528,6917.853,95.437,540.654,538.782,0.0
53828.0,STARLINK-4760,PAYLOAD,2023-10-22 03:53:50,15.08867855,0.0001193,53.2165,247.4858,87.3694,272.7434,0.0010041,0.00015741,0.0,0 STARLINK-4760,1 53828U 22114L   23295.16239231  .00015741  00000-0  10041-2 0  9990,2 53828  53.2165 247.4858 0001193  87.3694 272.7434 15.08867855 61020,6917.795,95.436,540.486,538.835,0.0
53828.0,STARLINK-4760,PAYLOAD,2023-10-22 13:26:09,15.0886472,4.95e-05,53.2178,245.7022,74.616,285.4887,0.00067123,0.00010418,0.0,0 STARLINK-4760,1 53828U 22114L   23295.55982663  .00010418  00000-0  67123-3 0  9997,2 53828  53.2178 245.7022 0000495  74.6160 285.4887 15.08864720 61626,6917.805,95.436,540.012,539.327,0.0
53828.0,STARLINK-4760,PAYLOAD,2023-10-23 03:44:38,15.08831548,0.0001243,53.2165,243.0265,77.4358,282.6773,6.4602e-05,7.4e-06,0.0,0 STARLINK-4760,1 53828U 22114L   23296.15599851  .00000740  00000-0  64602-4 0  9994,2 53828  53.2165 243.0265 0001243  77.4358 282.6773 15.08831548 61179,6917.906,95.438,540.631,538.911,0.0
53828.0,STARLINK-4760,PAYLOAD,2023-10-23 13:16:57,15.08827235,0.0001324,53.2172,241.2427,76.975,283.139,0.00085609,0.00013358,0.0,0 STARLINK-4760,1 53828U 22114L   23296.55344588  .00013358  00000-0  85609-3 0  9991,2 53828  53.2172 241.2427 0001324  76.9750 283.1390 15.08827235 61772,6917.919,95.438,540.7,538.868,0.0
53828.0,STARLINK-4760,PAYLOAD,2023-10-24 05:10:48,15.08855079,0.0001303,53.2165,238.2694,80.9736,279.1404,0.0011834,0.00018604,0.0,0 STARLINK-4760,1 53828U 22114L   23297.21584376  .00018604  00000-0  11834-2 0  9993,2 53828  53.2165 238.2694 0001303  80.9736 279.1404 15.08855079 61332,6917.834,95.437,540.601,538.798,0.0
53828.0,STARLINK-4760,PAYLOAD,2023-10-24 13:07:44,15.08853171,0.0001551,53.2168,236.7806,83.4823,276.6345,0.00057387,8.86e-05,0.0,0 STARLINK-4760,1 53828U 22114L   23297.54704397  .00008860  00000-0  57387-3 0  9993,2 53828  53.2168 236.7806 0001551  83.4823 276.6345 15.08853171 61925,6917.84,95.437,540.778,538.632,0.0
53828.0,STARLINK-4760,PAYLOAD,2023-10-25 05:01:35,15.08859153,0.000143,53.2159,233.8075,88.1236,271.992,0.00056593,8.735e-05,0.0,0 STARLINK-4760,1 53828U 22114L   23298.20943771  .00008735  00000-0  56593-3 0  9997,2 53828  53.2159 233.8075 0001430  88.1236 271.9920 15.08859153 61481,6917.822,95.436,540.676,538.698,0.0
53828.0,STARLINK-4760,PAYLOAD,2023-10-26 04:52:22,15.08848494,0.0001314,53.216,229.3463,85.0937,275.0205,0.00026592,3.948e-05,0.0,0 STARLINK-4760,1 53828U 22114L   23299.20304042  .00003948  00000-0  26592-3 0  9997,2 53828  53.2160 229.3463 0001314  85.0937 275.0205 15.08848494 61633,6917.854,95.437,540.628,538.81,0.0
53828.0,STARLINK-4760,PAYLOAD,2023-10-27 12:40:05,15.08840555,0.0001977,53.2168,223.3982,85.1736,274.9482,0.00013449,1.853e-05,0.0,0 STARLINK-4760,1 53828U 22114L   23300.52784086  .00001853  00000-0  13449-3 0  9995,2 53828  53.2168 223.3982 0001977  85.1736 274.9482 15.08840555 61831,6917.879,95.438,541.111,538.376,0.0
53828.0,STARLINK-4760,PAYLOAD,2023-10-27 22:12:24,15.08836354,0.0001783,53.2165,221.6135,90.072,270.0476,3.0501e-05,1.97e-06,0.0,0 STARLINK-4760,1 53828U 22114L   23300.92528226  .00000197  00000-0  30501-4 0  9990,2 53828  53.2165 221.6135 0001783  90.0720 270.0476 15.08836354 62431,6917.892,95.438,540.99,538.523,0.0
53828.0,STARLINK-4760,PAYLOAD,2023-10-28 01:23:10,15.0883674,0.00017,53.2169,221.0191,86.0568,274.0619,5.9625e-06,-1.93e-06,0.0,0 STARLINK-4760,1 53828U 22114L   23301.05776364 -.00000193  00000-0  59625-5 0  9999,2 53828  53.2169 221.0191 0001700  86.0568 274.0619 15.08836740 61919,6917.89,95.438,540.931,538.579,0.0
53828.0,STARLINK-4760,PAYLOAD,2023-10-28 22:03:11,15.08845773,0.0001535,53.2169,217.1553,80.5439,279.5727,0.00030908,4.635e-05,0.0,0 STARLINK-4760,1 53828U 22114L   23301.91888500  .00004635  00000-0  30908-3 0  9995,2 53828  53.2169 217.1553 0001535  80.5439 279.5727 15.08845773 62589,6917.863,95.437,540.79,538.666,0.0
53828.0,STARLINK-4760,PAYLOAD,2023-10-29 04:24:44,15.08860226,0.0001643,53.2173,215.9635,85.4404,274.6776,0.0010017,0.00015699,0.0,0 STARLINK-4760,1 53828U 22114L   23302.18384317  .00015699  00000-0  10017-2 0  9992,2 53828  53.2173 215.9635 0001643  85.4404 274.6776 15.08860226 62082,6917.819,95.436,540.82,538.547,0.0
53828.0,STARLINK-4760,PAYLOAD,2023-10-29 18:43:12,15.08840924,0.0001801,53.2174,213.2891,77.2387,282.8807,0.00024029,3.538e-05,0.0,0 STARLINK-4760,1 53828U 22114L   23302.78000900  .00003538  00000-0  24029-3 0  9999,2 53828  53.2174 213.2891 0001801  77.2387 282.8807 15.08840924 62172,6917.878,95.437,540.988,538.497,0.0
